[{"OBJECT_NAME":"FENGYUN 1C DEB","OBJECT_ID":"1999-025JM","EPOCH":"2026-04-25T15:26:42.091008","MEAN_MOTION":14.12117687,"ECCENTRICITY":0.0067234,"INCLINATION":98.715,"RA_OF_ASC_NODE":116.4763,"ARG_OF_PERICENTER":118.009,"MEAN_ANOMALY":358.2867,"EPHEMERIS_TYPE":0,"CLASSIFICATION_TYPE":"U","NORAD_CAT_ID":29939,"ELEMENT_SET_NO":999,"REV_AT_EPOCH":99350,"BSTAR":4.1082e-5,"MEAN_MOTION_DOT":3.5e-7,"MEAN_MOTION_DDOT":0},{"OBJECT_NAME":"FENGYUN 1C DEB","OBJECT_ID":"1999-025JN","EPOCH":"2026-04-25T14:19:25.732704","MEAN_MOTION":14.19169903,"ECCENTRICITY":0.0075045,"INCLINATION":98.6186,"RA_OF_ASC_NODE":126.6363,"ARG_OF_PERICENTER":74.4267,"MEAN_ANOMALY":52.7457,"EPHEMERIS_TYPE":0,"CLASSIFICATION_TYPE":"U","NORAD_CAT_ID":29940,"ELEMENT_SET_NO":999,"REV_AT_EPOCH":99386,"BSTAR":0.00047395,"MEAN_MOTION_DOT":9.78e-6,"MEAN_MOTION_DDOT":0},{"OBJECT_NAME":"FENGYUN 1C DEB","OBJECT_ID":"1999-025JQ","EPOCH":"2026-04-25T18:23:32.961408","MEAN_MOTION":14.30905451,"ECCENTRICITY":0.0048327,"INCLINATION":98.6176,"RA_OF_ASC_NODE":185.5714,"ARG_OF_PERICENTER":241.2969,"MEAN_ANOMALY":118.3352,"EPHEMERIS_TYPE":0,"CLASSIFICATION_TYPE":"U","NORAD_CAT_ID":29942,"ELEMENT_SET_NO":999,"REV_AT_EPOCH":99785,"BSTAR":0.00046381,"MEAN_MOTION_DOT":1.189e-5,"MEAN_MOTION_DDOT":0},{"OBJECT_NAME":"FENGYUN 1C DEB","OBJECT_ID":"1999-025JR","EPOCH":"2026-04-25T20:52:02.208864","MEAN_MOTION":14.09699819,"ECCENTRICITY":0.0035138,"INCLINATION":98.7255,"RA_OF_ASC_NODE":124.5473,"ARG_OF_PERICENTER":206.8453,"MEAN_ANOMALY":226.8464,"EPHEMERIS_TYPE":0,"CLASSIFICATION_TYPE":"U","NORAD_CAT_ID":29943,"ELEMENT_SET_NO":999,"REV_AT_EPOCH":99196,"BSTAR":2.2483e-5,"MEAN_MOTION_DOT":-3.0e-8,"MEAN_MOTION_DDOT":0},{"OBJECT_NAME":"FENGYUN 1C DEB","OBJECT_ID":"1999-025JS","EPOCH":"2026-04-25T20:44:36.840192","MEAN_MOTION":14.90654092,"ECCENTRICITY":0.0159504,"INCLINATION":99.019,"RA_OF_ASC_NODE":73.4279,"ARG_OF_PERICENTER":163.7189,"MEAN_ANOMALY":196.9235,"EPHEMERIS_TYPE":0,"CLASSIFICATION_TYPE":"U","NORAD_CAT_ID":29944,"ELEMENT_SET_NO":999,"REV_AT_EPOCH":2450,"BSTAR":0.00056488,"MEAN_MOTION_DOT":6.98e-5,"MEAN_MOTION_DDOT":0},{"OBJECT_NAME":"FENGYUN 1C DEB","OBJECT_ID":"1999-025JT","EPOCH":"2026-04-25T19:27:04.612320","MEAN_MOTION":14.05628959,"ECCENTRICITY":0.0030494,"INCLINATION":98.7781,"RA_OF_ASC_NODE":140.3671,"ARG_OF_PERICENTER":346.3156,"MEAN_ANOMALY":187.4141,"EPHEMERIS_TYPE":0,"CLASSIFICATION_TYPE":"U","NORAD_CAT_ID":29945,"ELEMENT_SET_NO":999,"REV_AT_EPOCH":98861,"BSTAR":0.00021883,"MEAN_MOTION_DOT":3.15e-6,"MEAN_MOTION_DDOT":0},{"OBJECT_NAME":"FENGYUN 1C DEB","OBJECT_ID":"1999-025JU","EPOCH":"2026-04-25T18:17:01.590144","MEAN_MOTION":14.08379348,"ECCENTRICITY":0.0079915,"INCLINATION":98.7905,"RA_OF_ASC_NODE":109.5092,"ARG_OF_PERICENTER":325.751,"MEAN_ANOMALY":212.8673,"EPHEMERIS_TYPE":0,"CLASSIFICATION_TYPE":"U","NORAD_CAT_ID":29946,"ELEMENT_SET_NO":999,"REV_AT_EPOCH":98933,"BSTAR":0.00014024,"MEAN_MOTION_DOT":2.04e-6,"MEAN_MOTION_DDOT":0},{"OBJECT_NAME":"FENGYUN 1C DEB","OBJECT_ID":"1999-025JV","EPOCH":"2026-04-25T20:01:00.438240","MEAN_MOTION":14.03161846,"ECCENTRICITY":0.0040898,"INCLINATION":98.8188,"RA_OF_ASC_NODE":147.3982,"ARG_OF_PERICENTER":106.6064,"MEAN_ANOMALY":71.1175,"EPHEMERIS_TYPE":0,"CLASSIFICATION_TYPE":"U","NORAD_CAT_ID":29947,"ELEMENT_SET_NO":999,"REV_AT_EPOCH":98630,"BSTAR":0.00038073,"MEAN_MOTION_DOT":5.55e-6,"MEAN_MOTION_DDOT":0},{"OBJECT_NAME":"FENGYUN 1C DEB","OBJECT_ID":"1999-025JW","EPOCH":"2026-04-25T05:56:20.097312","MEAN_MOTION":14.0626386,"ECCENTRICITY":0.0083803,"INCLINATION":98.8387,"RA_OF_ASC_NODE":103.1696,"ARG_OF_PERICENTER":218.7263,"MEAN_ANOMALY":156.6294,"EPHEMERIS_TYPE":0,"CLASSIFICATION_TYPE":"U","NORAD_CAT_ID":29948,"ELEMENT_SET_NO":999,"REV_AT_EPOCH":98853,"BSTAR":0.00022875,"MEAN_MOTION_DOT":3.45e-6,"MEAN_MOTION_DDOT":0},{"OBJECT_NAME":"FENGYUN 1C DEB","OBJECT_ID":"1999-025JX","EPOCH":"2026-04-25T19:14:08.550240","MEAN_MOTION":14.06851005,"ECCENTRICITY":0.0023016,"INCLINATION":98.7546,"RA_OF_ASC_NODE":132.2741,"ARG_OF_PERICENTER":287.4279,"MEAN_ANOMALY":257.8472,"EPHEMERIS_TYPE":0,"CLASSIFICATION_TYPE":"U","NORAD_CAT_ID":29949,"ELEMENT_SET_NO":999,"REV_AT_EPOCH":98992,"BSTAR":0.0001217,"MEAN_MOTION_DOT":1.6e-6,"MEAN_MOTION_DDOT":0},{"OBJECT_NAME":"FENGYUN 1C DEB","OBJECT_ID":"1999-025JY","EPOCH":"2026-04-25T20:26:20.003424","MEAN_MOTION":14.10396354,"ECCENTRICITY":0.0032424,"INCLINATION":98.7224,"RA_OF_ASC_NODE":148.0847,"ARG_OF_PERICENTER":221.3101,"MEAN_ANOMALY":314.0433,"EPHEMERIS_TYPE":0,"CLASSIFICATION_TYPE":"U","NORAD_CAT_ID":29950,"ELEMENT_SET_NO":999,"REV_AT_EPOCH":99181,"BSTAR":0.0001082,"MEAN_MOTION_DOT":1.5e-6,"MEAN_MOTION_DDOT":0},{"OBJECT_NAME":"FENGYUN 1C DEB","OBJECT_ID":"1999-025KB","EPOCH":"2026-04-25T11:15:34.413984","MEAN_MOTION":13.90983672,"ECCENTRICITY":0.010513,"INCLINATION":98.9521,"RA_OF_ASC_NODE":102.4698,"ARG_OF_PERICENTER":261.6958,"MEAN_ANOMALY":251.6669,"EPHEMERIS_TYPE":0,"CLASSIFICATION_TYPE":"U","NORAD_CAT_ID":29953,"ELEMENT_SET_NO":999,"REV_AT_EPOCH":97721,"BSTAR":0.00025461,"MEAN_MOTION_DOT":2.91e-6,"MEAN_MOTION_DDOT":0},{"OBJECT_NAME":"FENGYUN 1C DEB","OBJECT_ID":"1999-025KC","EPOCH":"2026-04-25T15:11:21.492096","MEAN_MOTION":14.34863334,"ECCENTRICITY":0.0073113,"INCLINATION":100.1325,"RA_OF_ASC_NODE":181.8068,"ARG_OF_PERICENTER":251.5088,"MEAN_ANOMALY":107.8136,"EPHEMERIS_TYPE":0,"CLASSIFICATION_TYPE":"U","NORAD_CAT_ID":29954,"ELEMENT_SET_NO":999,"REV_AT_EPOCH":104,"BSTAR":0.00053651,"MEAN_MOTION_DOT":1.512e-5,"MEAN_MOTION_DDOT":0},{"OBJECT_NAME":"FENGYUN 1C DEB","OBJECT_ID":"1999-025KD","EPOCH":"2026-04-25T20:42:03.335040","MEAN_MOTION":14.39481654,"ECCENTRICITY":0.0007727,"INCLINATION":99.2646,"RA_OF_ASC_NODE":212.22,"ARG_OF_PERICENTER":211.5901,"MEAN_ANOMALY":265.5892,"EPHEMERIS_TYPE":0,"CLASSIFICATION_TYPE":"U","NORAD_CAT_ID":29955,"ELEMENT_SET_NO":999,"REV_AT_EPOCH":99990,"BSTAR":0.0013034,"MEAN_MOTION_DOT":4.015e-5,"MEAN_MOTION_DDOT":0},{"OBJECT_NAME":"FENGYUN 1C DEB","OBJECT_ID":"1999-025KE","EPOCH":"2026-04-25T16:42:51.464736","MEAN_MOTION":14.06203648,"ECCENTRICITY":0.0053379,"INCLINATION":98.7741,"RA_OF_ASC_NODE":145.5716,"ARG_OF_PERICENTER":1.3119,"MEAN_ANOMALY":110.6544,"EPHEMERIS_TYPE":0,"CLASSIFICATION_TYPE":"U","NORAD_CAT_ID":29956,"ELEMENT_SET_NO":999,"REV_AT_EPOCH":98932,"BSTAR":2.6283e-6,"MEAN_MOTION_DOT":-3.8e-7,"MEAN_MOTION_DDOT":0},{"OBJECT_NAME":"FENGYUN 1C DEB","OBJECT_ID":"1999-025KF","EPOCH":"2026-04-25T08:23:10.567104","MEAN_MOTION":14.56213366,"ECCENTRICITY":0.0036345,"INCLINATION":98.9199,"RA_OF_ASC_NODE":255.9543,"ARG_OF_PERICENTER":133.8151,"MEAN_ANOMALY":256.0952,"EPHEMERIS_TYPE":0,"CLASSIFICATION_TYPE":"U","NORAD_CAT_ID":29957,"ELEMENT_SET_NO":999,"REV_AT_EPOCH":99433,"BSTAR":0.0041658,"MEAN_MOTION_DOT":0.00018574,"MEAN_MOTION_DDOT":0}]
