FENGYUN 1C DEB          
1 29939U 99025JM  26115.64354272  .00000035  00000+0  41082-4 0  9991
2 29939  98.7150 116.4763 0067234 118.0090 358.2867 14.12117687993506
FENGYUN 1C DEB          
1 29940U 99025JN  26115.59682561  .00000978  00000+0  47395-3 0  9990
2 29940  98.6186 126.6363 0075045  74.4267  52.7457 14.19169903993860
FENGYUN 1C DEB          
1 29942U 99025JQ  26115.76635372  .00001189  00000+0  46381-3 0  9998
2 29942  98.6176 185.5714 0048327 241.2969 118.3352 14.30905451997856
FENGYUN 1C DEB          
1 29943U 99025JR  26115.86947001 -.00000003  00000+0  22483-4 0  9998
2 29943  98.7255 124.5473 0035138 206.8453 226.8464 14.09699819991961
FENGYUN 1C DEB          
1 29944U 99025JS  26115.86431528  .00006980  00000+0  56488-3 0  9991
2 29944  99.0190  73.4279 0159504 163.7189 196.9235 14.90654092 24505
FENGYUN 1C DEB          
1 29945U 99025JT  26115.81047005  .00000315  00000+0  21883-3 0  9997
2 29945  98.7781 140.3671 0030494 346.3156 187.4141 14.05628959988618
FENGYUN 1C DEB          
1 29946U 99025JU  26115.76182396  .00000204  00000+0  14024-3 0  9991
2 29946  98.7905 109.5092 0079915 325.7510 212.8673 14.08379348989338
FENGYUN 1C DEB          
1 29947U 99025JV  26115.83403285  .00000555  00000+0  38073-3 0  9992
2 29947  98.8188 147.3982 0040898 106.6064  71.1175 14.03161846986303
FENGYUN 1C DEB          
1 29948U 99025JW  26115.24745483  .00000345  00000+0  22875-3 0  9997
2 29948  98.8387 103.1696 0083803 218.7263 156.6294 14.06263860988536
FENGYUN 1C DEB          
1 29949U 99025JX  26115.80148785  .00000160  00000+0  12170-3 0  9994
2 29949  98.7546 132.2741 0023016 287.4279 257.8472 14.06851005989927
FENGYUN 1C DEB          
1 29950U 99025JY  26115.85162041  .00000150  00000+0  10820-3 0  9991
2 29950  98.7224 148.0847 0032424 221.3101 314.0433 14.10396354991818
FENGYUN 1C DEB          
1 29953U 99025KB  26115.46914831  .00000291  00000+0  25461-3 0  9996
2 29953  98.9521 102.4698 0105130 261.6958 251.6669 13.90983672977210
FENGYUN 1C DEB          
1 29954U 99025KC  26115.63288764  .00001512  00000+0  53651-3 0  9994
2 29954 100.1325 181.8068 0073113 251.5088 107.8136 14.34863334  1049
FENGYUN 1C DEB          
1 29955U 99025KD  26115.86253860  .00004015  00000+0  13034-2 0  9990
2 29955  99.2646 212.2200 0007727 211.5901 265.5892 14.39481654999907
FENGYUN 1C DEB          
1 29956U 99025KE  26115.69642899 -.00000038  00000+0  26283-5 0  9991
2 29956  98.7741 145.5716 0053379   1.3119 110.6544 14.06203648989326
FENGYUN 1C DEB          
1 29957U 99025KF  26115.34942786  .00018574  00000+0  41658-2 0  9995
2 29957  98.9199 255.9543 0036345 133.8151 256.0952 14.56213366994339
